{"type": "FeatureCollection", "features": [ {"type": "Feature", "properties": {"norad_id": 30759, "name": "FENGYUN 1C DEB", "group": "fengyun-1c-debris", "lat": -49.21143405384836, "lon": -80.14159596373118, "alt_km": 718.1528535874913, "timestamp": "2025-12-27T10:28:59.073159+00:00", "meta": {"OBJECT_NAME": "FENGYUN 1C DEB", "OBJECT_ID": "1999-025ATV", "EPOCH": "2025-12-27T01:58:28.585056", "MEAN_MOTION": 14.5479657, "ECCENTRICITY": 0.0008416, "INCLINATION": 99.2555, "RA_OF_ASC_NODE": 110.3602, "ARG_OF_PERICENTER": 128.2082, "MEAN_ANOMALY": 46.0548, "EPHEMERIS_TYPE": 0, "CLASSIFICATION_TYPE": "U", "NORAD_CAT_ID": 30759, "ELEMENT_SET_NO": 999, "REV_AT_EPOCH": 97863, "BSTAR": 0.0029419, "MEAN_MOTION_DOT": 0.00012589, "MEAN_MOTION_DDOT": 0}, "tle": {"line1": "1 30759U 99025ATV 25361.08227529  .00012589  00000+0  29419-2 0  9992", "line2": "2 30759  99.2555 110.3602 0008416 128.2082  46.0548 14.54796570978634"}}, "geometry": {"type": "Point", "coordinates": [-80.14159596373118, -49.21143405384836]}}, {"type": "Feature", "properties": {"norad_id": 30760, "name": "FENGYUN 1C DEB", "group": "fengyun-1c-debris", "lat": 6.812830194607278, "lon": 178.77944114824044, "alt_km": 901.5492165518608, "timestamp": "2025-12-27T10:28:59.073169+00:00", "meta": {"OBJECT_NAME": "FENGYUN 1C DEB", "OBJECT_ID": "1999-025ATW", "EPOCH": "2025-12-26T23:24:16.168032", "MEAN_MOTION": 14.05193324, "ECCENTRICITY": 0.0052227, "INCLINATION": 98.823, "RA_OF_ASC_NODE": 357.2672, "ARG_OF_PERICENTER": 303.2762, "MEAN_ANOMALY": 56.3408, "EPHEMERIS_TYPE": 0, "CLASSIFICATION_TYPE": "U", "NORAD_CAT_ID": 30760, "ELEMENT_SET_NO": 999, "REV_AT_EPOCH": 96422, "BSTAR": 0.00023804, "MEAN_MOTION_DOT": 3.46e-06, "MEAN_MOTION_DDOT": 0}, "tle": {"line1": "1 30760U 99025ATW 25360.97518713  .00000346  00000+0  23804-3 0  9990", "line2": "2 30760  98.8230 357.2672 0052227 303.2762  56.3408 14.05193324964222"}}, "geometry": {"type": "Point", "coordinates": [178.77944114824044, 6.812830194607278]}}, {"type": "Feature", "properties": {"norad_id": 30761, "name": "FENGYUN 1C DEB", "group": "fengyun-1c-debris", "lat": 75.5530060157856, "lon": 145.90535396630375, "alt_km": 823.7213995938837, "timestamp": "2025-12-27T10:28:59.073179+00:00", "meta": {"OBJECT_NAME": "FENGYUN 1C DEB", "OBJECT_ID": "1999-025ATX", "EPOCH": "2025-12-26T12:15:57.555648", "MEAN_MOTION": 14.35854031, "ECCENTRICITY": 0.0083614, "INCLINATION": 98.9666, "RA_OF_ASC_NODE": 287.1472, "ARG_OF_PERICENTER": 273.2267, "MEAN_ANOMALY": 85.9354, "EPHEMERIS_TYPE": 0, "CLASSIFICATION_TYPE": "U", "NORAD_CAT_ID": 30761, "ELEMENT_SET_NO": 999, "REV_AT_EPOCH": 97939, "BSTAR": 0.001036, "MEAN_MOTION_DOT": 3.075e-05, "MEAN_MOTION_DDOT": 0}, "tle": {"line1": "1 30761U 99025ATX 25360.51108282  .00003075  00000+0  10360-2 0  9991", "line2": "2 30761  98.9666 287.1472 0083614 273.2267  85.9354 14.35854031979390"}}, "geometry": {"type": "Point", "coordinates": [145.90535396630375, 75.5530060157856]}}, {"type": "Feature", "properties": {"norad_id": 30762, "name": "FENGYUN 1C DEB", "group": "fengyun-1c-debris", "lat": 77.8741546569941, "lon": -54.91187669653322, "alt_km": 1035.402842612899, "timestamp": "2025-12-27T10:28:59.073189+00:00", "meta": {"OBJECT_NAME": "FENGYUN 1C DEB", "OBJECT_ID": "1999-025ATY", "EPOCH": "2025-12-24T17:41:52.326816", "MEAN_MOTION": 13.98113979, "ECCENTRICITY": 0.01973022, "INCLINATION": 98.8763, "RA_OF_ASC_NODE": 349.1388, "ARG_OF_PERICENTER": 261.87, "MEAN_ANOMALY": 281.0282, "EPHEMERIS_TYPE": 0, "CLASSIFICATION_TYPE": "U", "NORAD_CAT_ID": 30762, "ELEMENT_SET_NO": 999, "REV_AT_EPOCH": 95805, "BSTAR": 0.00050242304, "MEAN_MOTION_DOT": 7.99e-06, "MEAN_MOTION_DDOT": 0}, "tle": {"line1": "1 30762U 99025ATY 25358.73741119  .00000799  00000+0  50242-3 0  9999", "line2": "2 30762  98.8763 349.1388 0197302 261.8700 281.0282 13.98113979958054"}}, "geometry": {"type": "Point", "coordinates": [-54.91187669653322, 77.8741546569941]}}, {"type": "Feature", "properties": {"norad_id": 30763, "name": "FENGYUN 1C DEB", "group": "fengyun-1c-debris", "lat": 60.82881897681889, "lon": 57.606919533046494, "alt_km": 698.5425254344309, "timestamp": "2025-12-27T10:28:59.073200+00:00", "meta": {"OBJECT_NAME": "FENGYUN 1C DEB", "OBJECT_ID": "1999-025ATZ", "EPOCH": "2025-12-26T21:19:27.283008", "MEAN_MOTION": 14.61656597, "ECCENTRICITY": 0.0024615, "INCLINATION": 98.8918, "RA_OF_ASC_NODE": 73.3048, "ARG_OF_PERICENTER": 228.1695, "MEAN_ANOMALY": 190.6604, "EPHEMERIS_TYPE": 0, "CLASSIFICATION_TYPE": "U", "NORAD_CAT_ID": 30763, "ELEMENT_SET_NO": 999, "REV_AT_EPOCH": 97351, "BSTAR": 0.0052589, "MEAN_MOTION_DOT": 0.00026325, "MEAN_MOTION_DDOT": 0}, "tle": {"line1": "1 30763U 99025ATZ 25360.88851022  .00026325  00000+0  52589-2 0  9992", "line2": "2 30763  98.8918  73.3048 0024615 228.1695 190.6604 14.61656597973511"}}, "geometry": {"type": "Point", "coordinates": [57.606919533046494, 60.82881897681889]}}, {"type": "Feature", "properties": {"norad_id": 30764, "name": "FENGYUN 1C DEB", "group": "fengyun-1c-debris", "lat": -65.73216507082456, "lon": -5.211350917922761, "alt_km": 535.0374773629601, "timestamp": "2025-12-27T10:28:59.073209+00:00", "meta": {"OBJECT_NAME": "FENGYUN 1C DEB", "OBJECT_ID": "1999-025AUA", "EPOCH": "2025-12-27T04:30:07.616160", "MEAN_MOTION": 15.2998236, "ECCENTRICITY": 0.0076565, "INCLINATION": 98.7805, "RA_OF_ASC_NODE": 334.4442, "ARG_OF_PERICENTER": 121.1646, "MEAN_ANOMALY": 239.7127, "EPHEMERIS_TYPE": 0, "CLASSIFICATION_TYPE": "U", "NORAD_CAT_ID": 30764, "ELEMENT_SET_NO": 999, "REV_AT_EPOCH": 1443, "BSTAR": 0.0012236, "MEAN_MOTION_DOT": 0.00038908, "MEAN_MOTION_DDOT": 0}, "tle": {"line1": "1 30764U 99025AUA 25361.18758815  .00038908  00000+0  12236-2 0  9998", "line2": "2 30764  98.7805 334.4442 0076565 121.1646 239.7127 15.29982360 14431"}}, "geometry": {"type": "Point", "coordinates": [-5.211350917922761, -65.73216507082456]}}, {"type": "Feature", "properties": {"norad_id": 30765, "name": "FENGYUN 1C DEB", "group": "fengyun-1c-debris", "lat": 70.79056575372825, "lon": 20.851159601030368, "alt_km": 840.0325023600462, "timestamp": "2025-12-27T10:28:59.073220+00:00", "meta": {"OBJECT_NAME": "FENGYUN 1C DEB", "OBJECT_ID": "1999-025AUB", "EPOCH": "2025-12-26T14:29:48.482304", "MEAN_MOTION": 14.14753615, "ECCENTRICITY": 0.0068784, "INCLINATION": 98.7868, "RA_OF_ASC_NODE": 46.3856, "ARG_OF_PERICENTER": 169.9958, "MEAN_ANOMALY": 344.6948, "EPHEMERIS_TYPE": 0, "CLASSIFICATION_TYPE": "U", "NORAD_CAT_ID": 30765, "ELEMENT_SET_NO": 999, "REV_AT_EPOCH": 97018, "BSTAR": 0.00079387, "MEAN_MOTION_DOT": 1.521e-05, "MEAN_MOTION_DDOT": 0}, "tle": {"line1": "1 30765U 99025AUB 25360.60403336  .00001521  00000+0  79387-3 0  9992", "line2": "2 30765  98.7868  46.3856 0068784 169.9958 344.6948 14.14753615970181"}}, "geometry": {"type": "Point", "coordinates": [20.851159601030368, 70.79056575372825]}}, {"type": "Feature", "properties": {"norad_id": 30766, "name": "FENGYUN 1C DEB", "group": "fengyun-1c-debris", "lat": 36.1738227104546, "lon": -5.119696646406436, "alt_km": 798.0401308397486, "timestamp": "2025-12-27T10:28:59.073230+00:00", "meta": {"OBJECT_NAME": "FENGYUN 1C DEB", "OBJECT_ID": "1999-025AUC", "EPOCH": "2025-12-26T18:06:52.091712", "MEAN_MOTION": 14.0956431, "ECCENTRICITY": 0.00833705, "INCLINATION": 98.6728, "RA_OF_ASC_NODE": 0.631, "ARG_OF_PERICENTER": 35.0601, "MEAN_ANOMALY": 142.6697, "EPHEMERIS_TYPE": 0, "CLASSIFICATION_TYPE": "U", "NORAD_CAT_ID": 30766, "ELEMENT_SET_NO": 999, "REV_AT_EPOCH": 62994, "BSTAR": 0.00080210776, "MEAN_MOTION_DOT": 1.408e-05, "MEAN_MOTION_DDOT": 0}, "tle": {"line1": "1 30766U 99025AUC 25360.75476958  .00001408  00000+0  80211-3 0  9991", "line2": "2 30766  98.6728   0.6310 0083370  35.0601 142.6697 14.09564310629948"}}, "geometry": {"type": "Point", "coordinates": [-5.119696646406436, 36.1738227104546]}}, {"type": "Feature", "properties": {"norad_id": 30768, "name": "FENGYUN 1C DEB", "group": "fengyun-1c-debris", "lat": 12.956894059902961, "lon": -86.53910873086879, "alt_km": 739.013105625877, "timestamp": "2025-12-27T10:28:59.073240+00:00", "meta": {"OBJECT_NAME": "FENGYUN 1C DEB", "OBJECT_ID": "1999-025AUE", "EPOCH": "2025-12-27T05:02:24.680832", "MEAN_MOTION": 14.4811048, "ECCENTRICITY": 0.0023969, "INCLINATION": 98.6166, "RA_OF_ASC_NODE": 91.2305, "ARG_OF_PERICENTER": 56.452, "MEAN_ANOMALY": 8.4693, "EPHEMERIS_TYPE": 0, "CLASSIFICATION_TYPE": "U", "NORAD_CAT_ID": 30768, "ELEMENT_SET_NO": 999, "REV_AT_EPOCH": 98080, "BSTAR": 0.0024209, "MEAN_MOTION_DOT": 9.008e-05, "MEAN_MOTION_DDOT": 0}, "tle": {"line1": "1 30768U 99025AUE 25361.21000788  .00009008  00000+0  24209-2 0  9997", "line2": "2 30768  98.6166  91.2305 0023969  56.4520   8.4693 14.48110480980809"}}, "geometry": {"type": "Point", "coordinates": [-86.53910873086879, 12.956894059902961]}}, {"type": "Feature", "properties": {"norad_id": 30770, "name": "FENGYUN 1C DEB", "group": "fengyun-1c-debris", "lat": 37.41933251067625, "lon": -166.24751562162518, "alt_km": 838.5847242087648, "timestamp": "2025-12-27T10:28:59.073250+00:00", "meta": {"OBJECT_NAME": "FENGYUN 1C DEB", "OBJECT_ID": "1999-025AUG", "EPOCH": "2025-12-26T22:15:08.052192", "MEAN_MOTION": 14.15700431, "ECCENTRICITY": 0.0012858, "INCLINATION": 98.6544, "RA_OF_ASC_NODE": 6.566, "ARG_OF_PERICENTER": 242.2955, "MEAN_ANOMALY": 184.0154, "EPHEMERIS_TYPE": 0, "CLASSIFICATION_TYPE": "U", "NORAD_CAT_ID": 30770, "ELEMENT_SET_NO": 999, "REV_AT_EPOCH": 97108, "BSTAR": 0.00032855, "MEAN_MOTION_DOT": 6.02e-06, "MEAN_MOTION_DDOT": 0}, "tle": {"line1": "1 30770U 99025AUG 25360.92717653  .00000602  00000+0  32855-3 0  9991", "line2": "2 30770  98.6544   6.5660 0012858 242.2955 184.0154 14.15700431971085"}}, "geometry": {"type": "Point", "coordinates": [-166.24751562162518, 37.41933251067625]}}]}